SAUDISAT 1C (SO-50)     
1 27607U 02058C   26166.33462240  .00000861  00000+0  11895-3 0  9993
2 27607  64.5510 134.7172 0075306 262.8143  96.4397 14.83043230264184
SAUDISAT 2              
1 28371U 04025F   26166.58648522  .00000213  00000+0  58601-4 0  9992
2 28371  98.5507 166.5270 0023654 303.4138  56.4796 14.56683129165516
SAUDISAT 3              
1 31118U 07012B   26166.42262826  .00000206  00000+0  41453-4 0  9995
2 31118  98.1456 116.8220 0013537 229.8092 130.1930 14.71424637 27487
PISAT                   
1 41784U 16059B   26166.57735116  .00000732  00000+0  13228-3 0  9991
2 41784  97.8179 167.0993 0028241 208.0527 151.9159 14.68981043519508
FLYING LAPTOP           
1 42831U 17042G   26166.58573528  .00003288  00000+0  26018-3 0  9996
2 42831  97.4673 322.1799 0019504 126.8484 233.4533 15.01137329486217
SALSAT                  
1 46495U 20068K   26166.57567589  .00006463  00000+0  22682-3 0  9998
2 46495  97.8844 169.5420 0008147 315.1312  44.9267 15.29779983315116
