OBJECT_NAME,OBJECT_ID,EPOCH,MEAN_MOTION,ECCENTRICITY,INCLINATION,RA_OF_ASC_NODE,ARG_OF_PERICENTER,MEAN_ANOMALY,EPHEMERIS_TYPE,CLASSIFICATION_TYPE,NORAD_CAT_ID,ELEMENT_SET_NO,REV_AT_EPOCH,BSTAR,MEAN_MOTION_DOT,MEAN_MOTION_DDOT
SAUDISAT 1C (SO-50),2002-058C,2026-06-15T08:01:51.375360,14.83043230,.00753069,64.5510,134.7172,262.8143,96.4397,0,U,27607,999,26418,.11894541E-3,.861E-5,0
SAUDISAT 2,2004-025F,2026-06-15T14:04:32.323008,14.56683129,.00236544,98.5507,166.5270,303.4138,56.4796,0,U,28371,999,16551,.58600714E-4,.213E-5,0
SAUDISAT 3,2007-012B,2026-06-15T10:08:35.081664,14.71424637,.00135377,98.1456,116.8220,229.8092,130.1930,0,U,31118,999,2748,.41453207E-4,.206E-5,0
PISAT,2016-059B,2026-06-15T13:51:23.140224,14.68981043,.00282419,97.8179,167.0993,208.0527,151.9159,0,U,41784,999,51950,.13228117E-3,.732E-5,0
FLYING LAPTOP,2017-042G,2026-06-15T14:03:27.528192,15.01137329,.00195047,97.4673,322.1799,126.8484,233.4533,0,U,42831,999,48621,.26017935E-3,.3288E-4,0
SALSAT,2020-068K,2026-06-15T13:48:58.396896,15.29779983,.0008147,97.8844,169.5420,315.1312,44.9267,0,U,46495,999,31511,.22681759E-3,.6463E-4,0
